{"type": "FeatureCollection", "features": [ {"type": "Feature", "properties": {"norad_id": 67029, "name": "STARLINK-36190", "group": "last-30-days", "lat": 42.468900944259765, "lon": -39.036523152008805, "alt_km": 292.31521411279937, "timestamp": "2025-12-20T09:36:00.355761+00:00", "meta": {"OBJECT_NAME": "STARLINK-36190", "OBJECT_ID": "2025-293AC", "EPOCH": "2025-12-20T04:00:00.999072", "MEAN_MOTION": 15.93404819, "ECCENTRICITY": 0.0003902, "INCLINATION": 69.9936, "RA_OF_ASC_NODE": 302.1597, "ARG_OF_PERICENTER": 272.6159, "MEAN_ANOMALY": 235.6297, "EPHEMERIS_TYPE": 0, "CLASSIFICATION_TYPE": "U", "NORAD_CAT_ID": 67029, "ELEMENT_SET_NO": 999, "REV_AT_EPOCH": 142, "BSTAR": -0.0038146, "MEAN_MOTION_DOT": -0.01358459, "MEAN_MOTION_DDOT": 0.00053956}, "tle": {"line1": "1 67029U 25293AC  25354.16667823 -.01358459  53956-3 -38146-2 0  9995", "line2": "2 67029  69.9936 302.1597 0003902 272.6159 235.6297 15.93404819  1426"}}, "geometry": {"type": "Point", "coordinates": [-39.036523152008805, 42.468900944259765]}}, {"type": "Feature", "properties": {"norad_id": 67030, "name": "STARLINK-36138", "group": "last-30-days", "lat": 2.378655665508503, "lon": 137.9233340491782, "alt_km": 307.207278136214, "timestamp": "2025-12-20T09:36:00.355771+00:00", "meta": {"OBJECT_NAME": "STARLINK-36138", "OBJECT_ID": "2025-294A", "EPOCH": "2025-12-20T04:00:00.999072", "MEAN_MOTION": 15.88786406, "ECCENTRICITY": 0.0001555, "INCLINATION": 42.9999, "RA_OF_ASC_NODE": 136.8125, "ARG_OF_PERICENTER": 272.5125, "MEAN_ANOMALY": 195.1528, "EPHEMERIS_TYPE": 0, "CLASSIFICATION_TYPE": "U", "NORAD_CAT_ID": 67030, "ELEMENT_SET_NO": 999, "REV_AT_EPOCH": 131, "BSTAR": -0.005284, "MEAN_MOTION_DOT": -0.01357191, "MEAN_MOTION_DDOT": 0}, "tle": {"line1": "1 67030U 25294A   25354.16667823 -.01357191  00000+0 -52840-2 0  9995", "line2": "2 67030  42.9999 136.8125 0001555 272.5125 195.1528 15.88786406  1315"}}, "geometry": {"type": "Point", "coordinates": [137.9233340491782, 2.378655665508503]}}, {"type": "Feature", "properties": {"norad_id": 67031, "name": "STARLINK-36150", "group": "last-30-days", "lat": 3.446775870477737, "lon": 139.07024908513822, "alt_km": 306.978451206116, "timestamp": "2025-12-20T09:36:00.355783+00:00", "meta": {"OBJECT_NAME": "STARLINK-36150", "OBJECT_ID": "2025-294B", "EPOCH": "2025-12-20T04:00:00.999072", "MEAN_MOTION": 15.88825533, "ECCENTRICITY": 0.0001729, "INCLINATION": 43, "RA_OF_ASC_NODE": 136.8085, "ARG_OF_PERICENTER": 272.8899, "MEAN_ANOMALY": 196.3097, "EPHEMERIS_TYPE": 0, "CLASSIFICATION_TYPE": "U", "NORAD_CAT_ID": 67031, "ELEMENT_SET_NO": 999, "REV_AT_EPOCH": 150, "BSTAR": -0.0052825, "MEAN_MOTION_DOT": -0.0135937, "MEAN_MOTION_DDOT": 0}, "tle": {"line1": "1 67031U 25294B   25354.16667823 -.01359370  00000+0 -52825-2 0  9990", "line2": "2 67031  43.0000 136.8085 0001729 272.8899 196.3097 15.88825533  1500"}}, "geometry": {"type": "Point", "coordinates": [139.07024908513822, 3.446775870477737]}}, {"type": "Feature", "properties": {"norad_id": 67032, "name": "STARLINK-36131", "group": "last-30-days", "lat": 6.151654164229465, "lon": 141.9962343339141, "alt_km": 306.5664439323091, "timestamp": "2025-12-20T09:36:00.355793+00:00", "meta": {"OBJECT_NAME": "STARLINK-36131", "OBJECT_ID": "2025-294C", "EPOCH": "2025-12-20T04:00:00.999072", "MEAN_MOTION": 15.88907171, "ECCENTRICITY": 0.0001586, "INCLINATION": 43.0001, "RA_OF_ASC_NODE": 136.7986, "ARG_OF_PERICENTER": 268.757, "MEAN_ANOMALY": 204.3622, "EPHEMERIS_TYPE": 0, "CLASSIFICATION_TYPE": "U", "NORAD_CAT_ID": 67032, "ELEMENT_SET_NO": 999, "REV_AT_EPOCH": 131, "BSTAR": -0.0053203, "MEAN_MOTION_DOT": -0.01372755, "MEAN_MOTION_DDOT": 0}, "tle": {"line1": "1 67032U 25294C   25354.16667823 -.01372755  00000+0 -53203-2 0  9994", "line2": "2 67032  43.0001 136.7986 0001586 268.7570 204.3622 15.88907171  1314"}}, "geometry": {"type": "Point", "coordinates": [141.9962343339141, 6.151654164229465]}}, {"type": "Feature", "properties": {"norad_id": 67033, "name": "STARLINK-36137", "group": "last-30-days", "lat": 4.784109183877777, "lon": 140.51262154676596, "alt_km": 306.81042093531687, "timestamp": "2025-12-20T09:36:00.355803+00:00", "meta": {"OBJECT_NAME": "STARLINK-36137", "OBJECT_ID": "2025-294D", "EPOCH": "2025-12-20T04:00:00.999072", "MEAN_MOTION": 15.88859802, "ECCENTRICITY": 0.0001714, "INCLINATION": 42.9999, "RA_OF_ASC_NODE": 136.8039, "ARG_OF_PERICENTER": 269.654, "MEAN_ANOMALY": 201.4833, "EPHEMERIS_TYPE": 0, "CLASSIFICATION_TYPE": "U", "NORAD_CAT_ID": 67033, "ELEMENT_SET_NO": 999, "REV_AT_EPOCH": 131, "BSTAR": -0.0052589, "MEAN_MOTION_DOT": -0.01356103, "MEAN_MOTION_DDOT": 0}, "tle": {"line1": "1 67033U 25294D   25354.16667823 -.01356103  00000+0 -52589-2 0  9990", "line2": "2 67033  42.9999 136.8039 0001714 269.6540 201.4833 15.88859802  1318"}}, "geometry": {"type": "Point", "coordinates": [140.51262154676596, 4.784109183877777]}}, {"type": "Feature", "properties": {"norad_id": 67034, "name": "STARLINK-36140", "group": "last-30-days", "lat": 7.644066178074845, "lon": 143.63192668828114, "alt_km": 306.02038170037304, "timestamp": "2025-12-20T09:36:00.355814+00:00", "meta": {"OBJECT_NAME": "STARLINK-36140", "OBJECT_ID": "2025-294E", "EPOCH": "2025-12-19T22:00:01.999584", "MEAN_MOTION": 15.89660762, "ECCENTRICITY": 0.00015583, "INCLINATION": 42.9996, "RA_OF_ASC_NODE": 138.3444, "ARG_OF_PERICENTER": 275.1183, "MEAN_ANOMALY": 208.1015, "EPHEMERIS_TYPE": 0, "CLASSIFICATION_TYPE": "U", "NORAD_CAT_ID": 67034, "ELEMENT_SET_NO": 999, "REV_AT_EPOCH": 130, "BSTAR": -0.0049092554, "MEAN_MOTION_DOT": -0.01323275, "MEAN_MOTION_DDOT": 0}, "tle": {"line1": "1 67034U 25294E   25353.91668981 -.01323275  00000+0 -49093-2 0  9999", "line2": "2 67034  42.9996 138.3444 0001558 275.1183 208.1015 15.89660762  1305"}}, "geometry": {"type": "Point", "coordinates": [143.63192668828114, 7.644066178074845]}}, {"type": "Feature", "properties": {"norad_id": 67035, "name": "STARLINK-36085", "group": "last-30-days", "lat": 10.638246649090963, "lon": 146.96650173443896, "alt_km": 305.7668780654476, "timestamp": "2025-12-20T09:36:00.355823+00:00", "meta": {"OBJECT_NAME": "STARLINK-36085", "OBJECT_ID": "2025-294F", "EPOCH": "2025-12-20T04:00:00.999072", "MEAN_MOTION": 15.8902458, "ECCENTRICITY": 0.0001614, "INCLINATION": 43.0003, "RA_OF_ASC_NODE": 136.782, "ARG_OF_PERICENTER": 268.5698, "MEAN_ANOMALY": 211.1214, "EPHEMERIS_TYPE": 0, "CLASSIFICATION_TYPE": "U", "NORAD_CAT_ID": 67035, "ELEMENT_SET_NO": 999, "REV_AT_EPOCH": 131, "BSTAR": -0.0053953, "MEAN_MOTION_DOT": -0.01396938, "MEAN_MOTION_DDOT": 0}, "tle": {"line1": "1 67035U 25294F   25354.16667823 -.01396938  00000+0 -53953-2 0  9998", "line2": "2 67035  43.0003 136.7820 0001614 268.5698 211.1214 15.89024580  1315"}}, "geometry": {"type": "Point", "coordinates": [146.96650173443896, 10.638246649090963]}}, {"type": "Feature", "properties": {"norad_id": 67036, "name": "STARLINK-36125", "group": "last-30-days", "lat": 9.140106482439233, "lon": 145.28593644089725, "alt_km": 306.1370977617289, "timestamp": "2025-12-20T09:36:00.355833+00:00", "meta": {"OBJECT_NAME": "STARLINK-36125", "OBJECT_ID": "2025-294G", "EPOCH": "2025-12-20T04:00:00.999072", "MEAN_MOTION": 15.88979916, "ECCENTRICITY": 0.0001686, "INCLINATION": 43, "RA_OF_ASC_NODE": 136.7878, "ARG_OF_PERICENTER": 265.0082, "MEAN_ANOMALY": 212.4808, "EPHEMERIS_TYPE": 0, "CLASSIFICATION_TYPE": "U", "NORAD_CAT_ID": 67036, "ELEMENT_SET_NO": 999, "REV_AT_EPOCH": 150, "BSTAR": -0.0053505, "MEAN_MOTION_DOT": -0.0138412, "MEAN_MOTION_DDOT": 0}, "tle": {"line1": "1 67036U 25294G   25354.16667823 -.01384120  00000+0 -53505-2 0  9992", "line2": "2 67036  43.0000 136.7878 0001686 265.0082 212.4808 15.88979916  1509"}}, "geometry": {"type": "Point", "coordinates": [145.28593644089725, 9.140106482439233]}}, {"type": "Feature", "properties": {"norad_id": 67037, "name": "STARLINK-35732", "group": "last-30-days", "lat": 12.237943955890946, "lon": 148.79187526881105, "alt_km": 305.490396049242, "timestamp": "2025-12-20T09:36:00.355845+00:00", "meta": {"OBJECT_NAME": "STARLINK-35732", "OBJECT_ID": "2025-294H", "EPOCH": "2025-12-20T04:00:00.999072", "MEAN_MOTION": 15.89058435, "ECCENTRICITY": 0.0001615, "INCLINATION": 43, "RA_OF_ASC_NODE": 136.7764, "ARG_OF_PERICENTER": 268.2643, "MEAN_ANOMALY": 213.8021, "EPHEMERIS_TYPE": 0, "CLASSIFICATION_TYPE": "U", "NORAD_CAT_ID": 67037, "ELEMENT_SET_NO": 999, "REV_AT_EPOCH": 142, "BSTAR": -0.0053981, "MEAN_MOTION_DOT": -0.01399693, "MEAN_MOTION_DDOT": 0}, "tle": {"line1": "1 67037U 25294H   25354.16667823 -.01399693  00000+0 -53981-2 0  9992", "line2": "2 67037  43.0000 136.7764 0001615 268.2643 213.8021 15.89058435  1422"}}, "geometry": {"type": "Point", "coordinates": [148.79187526881105, 12.237943955890946]}}, {"type": "Feature", "properties": {"norad_id": 67038, "name": "STARLINK-35775", "group": "last-30-days", "lat": 13.577001593951202, "lon": 150.346955997808, "alt_km": 305.11389649593457, "timestamp": "2025-12-20T09:36:00.355857+00:00", "meta": {"OBJECT_NAME": "STARLINK-35775", "OBJECT_ID": "2025-294J", "EPOCH": "2025-12-20T04:00:00.999072", "MEAN_MOTION": 15.89105791, "ECCENTRICITY": 0.0001697, "INCLINATION": 43.0002, "RA_OF_ASC_NODE": 136.7711, "ARG_OF_PERICENTER": 273.8037, "MEAN_ANOMALY": 210.2503, "EPHEMERIS_TYPE": 0, "CLASSIFICATION_TYPE": "U", "NORAD_CAT_ID": 67038, "ELEMENT_SET_NO": 999, "REV_AT_EPOCH": 142, "BSTAR": -0.0054485, "MEAN_MOTION_DOT": -0.01414108, "MEAN_MOTION_DDOT": 0}, "tle": {"line1": "1 67038U 25294J   25354.16667823 -.01414108  00000+0 -54485-2 0  9992", "line2": "2 67038  43.0002 136.7711 0001697 273.8037 210.2503 15.89105791  1420"}}, "geometry": {"type": "Point", "coordinates": [150.346955997808, 13.577001593951202]}}]}